[{"OBJECT_NAME":"OBJECT B","OBJECT_ID":"2024-153B","EPOCH":"2026-03-09T23:15:18.632160","MEAN_MOTION":15.30512917,"ECCENTRICITY":0.00113423,"INCLINATION":97.6622,"RA_OF_ASC_NODE":204.9195,"ARG_OF_PERICENTER":149.8438,"MEAN_ANOMALY":210.3457,"EPHEMERIS_TYPE":0,"CLASSIFICATION_TYPE":"U","NORAD_CAT_ID":60746,"ELEMENT_SET_NO":999,"REV_AT_EPOCH":8476,"BSTAR":0.00066193599,"MEAN_MOTION_DOT":0.00019515,"MEAN_MOTION_DDOT":0},{"OBJECT_NAME":"STARLINK-35946","OBJECT_ID":"2025-265G","EPOCH":"2026-03-09T20:11:59.175168","MEAN_MOTION":15.27586457,"ECCENTRICITY":0.00021343,"INCLINATION":43.002,"RA_OF_ASC_NODE":277.3375,"ARG_OF_PERICENTER":265.8621,"MEAN_ANOMALY":94.1987,"EPHEMERIS_TYPE":0,"CLASSIFICATION_TYPE":"U","NORAD_CAT_ID":66522,"ELEMENT_SET_NO":999,"REV_AT_EPOCH":1713,"BSTAR":0.00084174128,"MEAN_MOTION_DOT":0.00022978,"MEAN_MOTION_DDOT":0}]
